{"type": "FeatureCollection", "features": [ {"type": "Feature", "properties": {"norad_id": 30013, "name": "FENGYUN 1C DEB", "group": "fengyun-1c-debris", "lat": -66.09034980070307, "lon": 177.5160172322386, "alt_km": 989.9115605656352, "timestamp": "2025-12-26T03:50:12.366382+00:00", "meta": {"OBJECT_NAME": "FENGYUN 1C DEB", "OBJECT_ID": "1999-025MN", "EPOCH": "2025-12-25T00:56:46.143744", "MEAN_MOTION": 13.87833109, "ECCENTRICITY": 0.01278463, "INCLINATION": 99.5794, "RA_OF_ASC_NODE": 18.7569, "ARG_OF_PERICENTER": 11.3733, "MEAN_ANOMALY": 42.8639, "EPHEMERIS_TYPE": 0, "CLASSIFICATION_TYPE": "U", "NORAD_CAT_ID": 30013, "ELEMENT_SET_NO": 999, "REV_AT_EPOCH": 95852, "BSTAR": 0.00023896333, "MEAN_MOTION_DOT": 2.56e-06, "MEAN_MOTION_DDOT": 0}, "tle": {"line1": "1 30013U 99025MN  25359.03942296  .00000256  00000+0  23896-3 0  9994", "line2": "2 30013  99.5794  18.7569 0127846  11.3733  42.8639 13.87833109958528"}}, "geometry": {"type": "Point", "coordinates": [177.5160172322386, -66.09034980070307]}}, {"type": "Feature", "properties": {"norad_id": 30015, "name": "FENGYUN 1C DEB", "group": "fengyun-1c-debris", "lat": 16.351876634089543, "lon": 1.1238032294051583, "alt_km": 779.9623624583255, "timestamp": "2025-12-26T03:50:12.366392+00:00", "meta": {"OBJECT_NAME": "FENGYUN 1C DEB", "OBJECT_ID": "1999-025MQ", "EPOCH": "2025-12-25T13:13:05.934432", "MEAN_MOTION": 14.30834822, "ECCENTRICITY": 0.0038682, "INCLINATION": 99.2286, "RA_OF_ASC_NODE": 3.2118, "ARG_OF_PERICENTER": 88.5324, "MEAN_ANOMALY": 32.8338, "EPHEMERIS_TYPE": 0, "CLASSIFICATION_TYPE": "U", "NORAD_CAT_ID": 30015, "ELEMENT_SET_NO": 999, "REV_AT_EPOCH": 98356, "BSTAR": 0.00054331, "MEAN_MOTION_DOT": 1.388e-05, "MEAN_MOTION_DDOT": 0}, "tle": {"line1": "1 30015U 99025MQ  25359.55076313  .00001388  00000+0  54331-3 0  9996", "line2": "2 30015  99.2286   3.2118 0038682  88.5324  32.8338 14.30834822983562"}}, "geometry": {"type": "Point", "coordinates": [1.1238032294051583, 16.351876634089543]}}, {"type": "Feature", "properties": {"norad_id": 30016, "name": "FENGYUN 1C DEB", "group": "fengyun-1c-debris", "lat": -65.39812020655407, "lon": 33.56369277425755, "alt_km": 626.9186892406733, "timestamp": "2025-12-26T03:50:12.366402+00:00", "meta": {"OBJECT_NAME": "FENGYUN 1C DEB", "OBJECT_ID": "1999-025MR", "EPOCH": "2025-12-24T18:17:32.555904", "MEAN_MOTION": 14.7881203, "ECCENTRICITY": 0.00460235, "INCLINATION": 98.9044, "RA_OF_ASC_NODE": 11.9946, "ARG_OF_PERICENTER": 3.5031, "MEAN_ANOMALY": 53.4802, "EPHEMERIS_TYPE": 0, "CLASSIFICATION_TYPE": "U", "NORAD_CAT_ID": 30016, "ELEMENT_SET_NO": 999, "REV_AT_EPOCH": 99631, "BSTAR": 0.0018665401, "MEAN_MOTION_DOT": 0.00013934, "MEAN_MOTION_DDOT": 0}, "tle": {"line1": "1 30016U 99025MR  25358.76218236  .00013934  00000+0  18665-2 0  9990", "line2": "2 30016  98.9044  11.9946 0046023   3.5031  53.4802 14.78812030996317"}}, "geometry": {"type": "Point", "coordinates": [33.56369277425755, -65.39812020655407]}}, {"type": "Feature", "properties": {"norad_id": 30017, "name": "FENGYUN 1C DEB", "group": "fengyun-1c-debris", "lat": -48.63015146517759, "lon": 55.606458895418456, "alt_km": 849.9005554626783, "timestamp": "2025-12-26T03:50:12.366413+00:00", "meta": {"OBJECT_NAME": "FENGYUN 1C DEB", "OBJECT_ID": "1999-025MS", "EPOCH": "2025-12-25T01:46:34.467456", "MEAN_MOTION": 14.61223049, "ECCENTRICITY": 0.02179885, "INCLINATION": 98.753, "RA_OF_ASC_NODE": 44.3821, "ARG_OF_PERICENTER": 137.1855, "MEAN_ANOMALY": 224.6554, "EPHEMERIS_TYPE": 0, "CLASSIFICATION_TYPE": "U", "NORAD_CAT_ID": 30017, "ELEMENT_SET_NO": 999, "REV_AT_EPOCH": 624, "BSTAR": 0.00015126574, "MEAN_MOTION_DOT": 9.79e-06, "MEAN_MOTION_DDOT": 0}, "tle": {"line1": "1 30017U 99025MS  25359.07401004  .00000979  00000+0  15127-3 0  9999", "line2": "2 30017  98.7530  44.3821 0217988 137.1855 224.6554 14.61223049  6244"}}, "geometry": {"type": "Point", "coordinates": [55.606458895418456, -48.63015146517759]}}, {"type": "Feature", "properties": {"norad_id": 30018, "name": "FENGYUN 1C DEB", "group": "fengyun-1c-debris", "lat": -25.568363915410316, "lon": -100.3780134873652, "alt_km": 605.2126387712242, "timestamp": "2025-12-26T03:50:12.366423+00:00", "meta": {"OBJECT_NAME": "FENGYUN 1C DEB", "OBJECT_ID": "1999-025MT", "EPOCH": "2025-12-25T00:00:50.086080", "MEAN_MOTION": 14.73314341, "ECCENTRICITY": 0.01170105, "INCLINATION": 98.7547, "RA_OF_ASC_NODE": 82.6003, "ARG_OF_PERICENTER": 157.1012, "MEAN_ANOMALY": 22.4565, "EPHEMERIS_TYPE": 0, "CLASSIFICATION_TYPE": "U", "NORAD_CAT_ID": 30018, "ELEMENT_SET_NO": 999, "REV_AT_EPOCH": 617, "BSTAR": 0.00083051041, "MEAN_MOTION_DOT": 5.932e-05, "MEAN_MOTION_DDOT": 0}, "tle": {"line1": "1 30018U 99025MT  25359.00057970  .00005932  00000+0  83051-3 0  9997", "line2": "2 30018  98.7547  82.6003 0117010 157.1012  22.4565 14.73314341  6179"}}, "geometry": {"type": "Point", "coordinates": [-100.3780134873652, -25.568363915410316]}}, {"type": "Feature", "properties": {"norad_id": 30020, "name": "FENGYUN 1C DEB", "group": "fengyun-1c-debris", "lat": -41.974140543479606, "lon": 175.5787382230356, "alt_km": 1016.3535046391362, "timestamp": "2025-12-26T03:50:12.366434+00:00", "meta": {"OBJECT_NAME": "FENGYUN 1C DEB", "OBJECT_ID": "1999-025MV", "EPOCH": "2025-12-25T12:05:52.499040", "MEAN_MOTION": 14.04486254, "ECCENTRICITY": 0.0183779, "INCLINATION": 98.8471, "RA_OF_ASC_NODE": 2.9936, "ARG_OF_PERICENTER": 34.9141, "MEAN_ANOMALY": 114.0268, "EPHEMERIS_TYPE": 0, "CLASSIFICATION_TYPE": "U", "NORAD_CAT_ID": 30020, "ELEMENT_SET_NO": 999, "REV_AT_EPOCH": 96837, "BSTAR": 0.00041457, "MEAN_MOTION_DOT": 7.26e-06, "MEAN_MOTION_DDOT": 0}, "tle": {"line1": "1 30020U 99025MV  25359.50407985  .00000726  00000+0  41457-3 0  9990", "line2": "2 30020  98.8471   2.9936 0183779  34.9141 114.0268 14.04486254968373"}}, "geometry": {"type": "Point", "coordinates": [175.5787382230356, -41.974140543479606]}}, {"type": "Feature", "properties": {"norad_id": 30021, "name": "FENGYUN 1C DEB", "group": "fengyun-1c-debris", "lat": 44.55404660965747, "lon": -17.474604575801184, "alt_km": 920.7243995659192, "timestamp": "2025-12-26T03:50:12.366444+00:00", "meta": {"OBJECT_NAME": "FENGYUN 1C DEB", "OBJECT_ID": "1999-025MW", "EPOCH": "2025-12-25T21:06:18.883872", "MEAN_MOTION": 14.04895327, "ECCENTRICITY": 0.0071871, "INCLINATION": 98.8363, "RA_OF_ASC_NODE": 351.0619, "ARG_OF_PERICENTER": 249.8273, "MEAN_ANOMALY": 177.3745, "EPHEMERIS_TYPE": 0, "CLASSIFICATION_TYPE": "U", "NORAD_CAT_ID": 30021, "ELEMENT_SET_NO": 999, "REV_AT_EPOCH": 97116, "BSTAR": 8.2757e-07, "MEAN_MOTION_DOT": -4.2e-07, "MEAN_MOTION_DDOT": 0}, "tle": {"line1": "1 30021U 99025MW  25359.87938523 -.00000042  00000+0  82757-6 0  9991", "line2": "2 30021  98.8363 351.0619 0071871 249.8273 177.3745 14.04895327971160"}}, "geometry": {"type": "Point", "coordinates": [-17.474604575801184, 44.55404660965747]}}, {"type": "Feature", "properties": {"norad_id": 30022, "name": "FENGYUN 1C DEB", "group": "fengyun-1c-debris", "lat": 70.66550888659658, "lon": 55.76816460961575, "alt_km": 833.8656739841172, "timestamp": "2025-12-26T03:50:12.366455+00:00", "meta": {"OBJECT_NAME": "FENGYUN 1C DEB", "OBJECT_ID": "1999-025MX", "EPOCH": "2025-12-25T12:25:22.163232", "MEAN_MOTION": 14.23136892, "ECCENTRICITY": 0.0066729, "INCLINATION": 99.0715, "RA_OF_ASC_NODE": 208.0198, "ARG_OF_PERICENTER": 232.031, "MEAN_ANOMALY": 187.1399, "EPHEMERIS_TYPE": 0, "CLASSIFICATION_TYPE": "U", "NORAD_CAT_ID": 30022, "ELEMENT_SET_NO": 999, "REV_AT_EPOCH": 98374, "BSTAR": 7.1665e-05, "MEAN_MOTION_DOT": 1.18e-06, "MEAN_MOTION_DDOT": 0}, "tle": {"line1": "1 30022U 99025MX  25359.51761763  .00000118  00000+0  71665-4 0  9990", "line2": "2 30022  99.0715 208.0198 0066729 232.0310 187.1399 14.23136892983747"}}, "geometry": {"type": "Point", "coordinates": [55.76816460961575, 70.66550888659658]}}, {"type": "Feature", "properties": {"norad_id": 30023, "name": "FENGYUN 1C DEB", "group": "fengyun-1c-debris", "lat": -34.1140333225497, "lon": 7.835624089195503, "alt_km": 892.6987264705222, "timestamp": "2025-12-26T03:50:12.366466+00:00", "meta": {"OBJECT_NAME": "FENGYUN 1C DEB", "OBJECT_ID": "1999-025MY", "EPOCH": "2025-12-25T01:51:37.393632", "MEAN_MOTION": 14.11880353, "ECCENTRICITY": 0.00469745, "INCLINATION": 99.2935, "RA_OF_ASC_NODE": 193.0832, "ARG_OF_PERICENTER": 29.4908, "MEAN_ANOMALY": 86.8033, "EPHEMERIS_TYPE": 0, "CLASSIFICATION_TYPE": "U", "NORAD_CAT_ID": 30023, "ELEMENT_SET_NO": 999, "REV_AT_EPOCH": 97370, "BSTAR": 0.0003896577, "MEAN_MOTION_DOT": 6.72e-06, "MEAN_MOTION_DDOT": 0}, "tle": {"line1": "1 30023U 99025MY  25359.07751613  .00000672  00000+0  38966-3 0  9996", "line2": "2 30023  99.2935 193.0832 0046974  29.4908  86.8033 14.11880353973703"}}, "geometry": {"type": "Point", "coordinates": [7.835624089195503, -34.1140333225497]}}, {"type": "Feature", "properties": {"norad_id": 30028, "name": "FENGYUN 1C DEB", "group": "fengyun-1c-debris", "lat": 72.0598476808476, "lon": -34.197771356631364, "alt_km": 746.3735904325049, "timestamp": "2025-12-26T03:50:12.366476+00:00", "meta": {"OBJECT_NAME": "FENGYUN 1C DEB", "OBJECT_ID": "1999-025ND", "EPOCH": "2025-12-25T13:13:15.013344", "MEAN_MOTION": 14.5553047, "ECCENTRICITY": 0.0174818, "INCLINATION": 98.1466, "RA_OF_ASC_NODE": 351.4672, "ARG_OF_PERICENTER": 188.4468, "MEAN_ANOMALY": 298.2034, "EPHEMERIS_TYPE": 0, "CLASSIFICATION_TYPE": "U", "NORAD_CAT_ID": 30028, "ELEMENT_SET_NO": 999, "REV_AT_EPOCH": 99908, "BSTAR": 0.00028587, "MEAN_MOTION_DOT": 1.476e-05, "MEAN_MOTION_DDOT": 0}, "tle": {"line1": "1 30028U 99025ND  25359.55086821  .00001476  00000+0  28587-3 0  9997", "line2": "2 30028  98.1466 351.4672 0174818 188.4468 298.2034 14.55530470999082"}}, "geometry": {"type": "Point", "coordinates": [-34.197771356631364, 72.0598476808476]}}]}